NORAD_CAT_ID,OBJECT_NAME,OBJECT_TYPE,EPOCH,MEAN_MOTION,ECCENTRICITY,INCLINATION,RA_OF_ASC_NODE,ARG_OF_PERICENTER,MEAN_ANOMALY,BSTAR,MEAN_MOTION_DOT,MEAN_MOTION_DDOT,TLE_LINE0,TLE_LINE1,TLE_LINE2,SEMIMAJOR_AXIS,PERIOD,APOGEE,PERIGEE,DECAYED
52284.0,STARLINK-3561,PAYLOAD,2022-09-01 06:00:00,15.08841428,0.0002085,53.2144,109.6779,59.8402,276.7591,-0.0019302,-0.00030878,0.0,0 STARLINK-3561,1 52284U 22041Z   22244.25001157 -.00030878  00000-0 -19302-2 0  9990,2 52284  53.2144 109.6779 0002085  59.8402 276.7591 15.08841428 21667,6917.876,95.437,541.183,538.299,0.0
52284.0,STARLINK-3561,PAYLOAD,2022-09-01 14:00:01,15.08815388,0.0002004,53.2147,108.1802,66.8346,281.4143,0.0024422,0.00038768,0.0,0 STARLINK-3561,1 52284U 22041Z   22244.58335648  .00038768  00000-0  24422-2 0  9994,2 52284  53.2147 108.1802 0002004  66.8346 281.4143 15.08815388  1308,6917.956,95.439,541.207,538.434,0.0
52284.0,STARLINK-3561,PAYLOAD,2022-09-01 22:00:00,15.08835844,0.000214,53.2146,106.6856,62.0283,297.7418,-0.00044847,-7.418e-05,0.0,0 STARLINK-3561,1 52284U 22041Z   22244.91667824 -.00007418  00000-0 -44847-3 0  9999,2 52284  53.2146 106.6856 0002140  62.0283 297.7418 15.08835844 21764,6917.893,95.438,541.239,538.278,0.0
52284.0,STARLINK-3561,PAYLOAD,2022-09-02 14:00:01,15.08831523,0.0002014,53.2146,103.691,69.3057,313.6477,0.0020394,0.00032311,0.0,0 STARLINK-3561,1 52284U 22041Z   22245.58334491  .00032311  00000-0  20394-2 0  9992,2 52284  53.2146 103.6910 0002014  69.3057 313.6477 15.08831523  1302,6917.906,95.438,541.165,538.378,0.0
52284.0,STARLINK-3561,PAYLOAD,2022-09-02 22:00:01,15.08844644,0.0002145,53.2145,102.1963,64.2453,330.3705,-0.00027512,-4.665e-05,0.0,0 STARLINK-3561,1 52284U 22041Z   22245.91668981 -.00004665  00000-0 -27512-3 0  9996,2 52284  53.2145 102.1963 0002145  64.2453 330.3705 15.08844644 21919,6917.866,95.437,541.215,538.247,0.0
52284.0,STARLINK-3561,PAYLOAD,2022-09-03 14:00:01,15.088482999999998,0.0002038,53.2144,99.2018,71.1488,346.6149,0.0016769,0.00026507,0.0,0 STARLINK-3561,1 52284U 22041Z   22246.58334491  .00026507  00000-0  16769-2 0  9994,2 52284  53.2144  99.2018 0002038  71.1488 346.6149 15.08848300  1307,6917.855,95.437,541.13,538.31,0.0
52284.0,STARLINK-3561,PAYLOAD,2022-09-03 22:00:00,15.08869985,0.0002117,53.2144,97.7072,64.9994,4.3829,-0.0026346,-0.00042009,0.0,0 STARLINK-3561,1 52284U 22041Z   22246.91667824 -.00042009  00000-0 -26346-2 0  9999,2 52284  53.2144  97.7072 0002117  64.9994   4.3829 15.08869985  1305,6917.7890000000025,95.436,541.118,538.189,0.0
52284.0,STARLINK-3561,PAYLOAD,2022-09-04 14:00:01,15.08843545,0.000196,53.2144,94.7124,70.5732,22.0888,0.001405,0.00022146,0.0,0 STARLINK-3561,1 52284U 22041Z   22247.58335648  .00022146  00000-0  14050-2 0  9996,2 52284  53.2144  94.7124 0001960  70.5732  22.0888 15.08843545 22172,6917.87,95.437,541.09,538.379,0.0
52284.0,STARLINK-3561,PAYLOAD,2022-09-04 20:00:01,15.0887241,0.0002005999999999,53.2143,93.5917,64.8215,306.4853,-0.0031829,-0.00050634,0.0,0 STARLINK-3561,1 52284U 22041Z   22247.83334491 -.00050634  00000-0 -31829-2 0  9997,2 52284  53.2143  93.5917 0002006  64.8215 306.4853 15.08872410  1308,6917.781,95.436,541.034,538.259,0.0
52284.0,STARLINK-3561,PAYLOAD,2022-09-05 06:00:00,15.08855289,0.0001889,53.2145,91.7203,64.1462,51.6768,-0.0012554999999999,-0.00020223,0.0,0 STARLINK-3561,1 52284U 22041Z   22248.25001157 -.00020223  00000-0 -12555-2 0  9990,2 52284  53.2145  91.7203 0001889  64.1462  51.6768 15.08855289 22271,6917.834,95.437,541.005,538.3919999999998,0.0
52284.0,STARLINK-3561,PAYLOAD,2022-09-05 14:00:01,15.08863927,0.0001863,53.2147,90.2232,68.7828,58.6389,-0.0018471,-0.00029584,0.0,0 STARLINK-3561,1 52284U 22041Z   22248.58334491 -.00029584  00000-0 -18471-2 0  9998,2 52284  53.2147  90.2232 0001863  68.7828  58.6389 15.08863927  1302,6917.807,95.436,540.961,538.383,0.0
52284.0,STARLINK-3561,PAYLOAD,2022-09-05 22:00:00,15.08826573,0.0001867,53.2148,88.7286,59.985,79.0529,-0.0013765999999999,-0.00022122,0.0,0 STARLINK-3561,1 52284U 22041Z   22248.91667824 -.00022122  00000-0 -13766-2 0  9997,2 52284  53.2148  88.7286 0001867  59.9850  79.0529 15.08826573  1304,6917.920999999999,95.438,541.078,538.495,0.0
52284.0,STARLINK-3561,PAYLOAD,2022-09-06 12:00:00,15.08803175,0.0001725,53.2149,86.1078,65.9868,3.3006,0.0027356,0.00043474,0.0,0 STARLINK-3561,1 52284U 22041Z   22249.50001157  .00043474  00000-0  27356-2 0  9995,2 52284  53.2149  86.1078 0001725  65.9868   3.3006 15.08803175 22468,6917.993,95.44,541.0509999999998,538.665,0.0
52284.0,STARLINK-3561,PAYLOAD,2022-09-06 14:00:01,15.0882379,0.000176,53.2152,85.7341,66.2987,95.8723,0.00058882,9.091e-05,0.0,0 STARLINK-3561,1 52284U 22041Z   22249.58334491  .00009091  00000-0  58882-3 0  9999,2 52284  53.2152  85.7341 0001760  66.2987  95.8723 15.08823790  1302,6917.93,95.439,541.012,538.577,0.0
52284.0,STARLINK-3561,PAYLOAD,2022-09-06 22:00:00,15.08811495,0.0001884,53.2151,84.2394,58.8238,114.931,0.0019846,0.00031414,0.0,0 STARLINK-3561,1 52284U 22041Z   22249.91667824  .00031414  00000-0  19846-2 0  9995,2 52284  53.2151  84.2394 0001884  58.8238 114.9310 15.08811495  1300,6917.968000000003,95.439,541.136,538.529,0.0
52284.0,STARLINK-3561,PAYLOAD,2022-09-07 06:00:00,15.08843588,0.0001773,53.2152,82.7416,62.1107,123.2174,-0.0011105,-0.0001792,0.0,0 STARLINK-3561,1 52284U 22041Z   22250.25001157 -.00017920  00000-0 -11105-2 0  9993,2 52284  53.2152  82.7416 0001773  62.1107 123.2174 15.08843588 22570,6917.869000000002,95.437,540.961,538.508,0.0
52284.0,STARLINK-3561,PAYLOAD,2022-09-07 14:00:01,15.08847414,0.0001793,53.2154,81.2448,66.5978,130.3168,0.00021998,3.215e-05,0.0,0 STARLINK-3561,1 52284U 22041Z   22250.58334491  .00003215  00000-0  21998-3 0  9991,2 52284  53.2154  81.2448 0001793  66.5978 130.3168 15.08847414  1309,6917.858,95.437,540.9630000000002,538.482,0.0
52284.0,STARLINK-3561,PAYLOAD,2022-09-07 22:00:00,15.08836104,0.0001884,53.2153,79.7499,58.7273,149.7963,0.0011223,0.00017617,0.0,0 STARLINK-3561,1 52284U 22041Z   22250.91667824  .00017617  00000-0  11223-2 0  9997,2 52284  53.2153  79.7499 0001884  58.7273 149.7963 15.08836104 22672,6917.892,95.438,541.061,538.4540000000002,0.0
52284.0,STARLINK-3561,PAYLOAD,2022-09-08 14:00:01,15.08842119,0.000167,53.2155,76.7554,65.7232,165.9847,-0.00016065,-2.844e-05,0.0,0 STARLINK-3561,1 52284U 22041Z   22251.58334491 -.00002844  00000-0 -16065-3 0  9990,2 52284  53.2155  76.7554 0001670  65.7232 165.9847 15.08842119  1300,6917.874,95.437,540.894,538.5840000000002,0.0
52284.0,STARLINK-3561,PAYLOAD,2022-09-08 22:00:00,15.08821365,0.0001776999999999,53.2153,75.2603,57.4116,185.9001,0.0026379999999999,0.00041925,0.0,0 STARLINK-3561,1 52284U 22041Z   22251.91667824  .00041925  00000-0  26380-2 0  9997,2 52284  53.2153  75.2603 0001777  57.4116 185.9001 15.08821365 22828,6917.937,95.439,541.0319999999998,538.573,0.0
52284.0,STARLINK-3561,PAYLOAD,2022-09-09 06:00:00,15.08823478,0.0001629,53.2159,73.7623,58.7001,196.1672,-0.00033366,-5.592e-05,0.0,0 STARLINK-3561,1 52284U 22041Z   22252.25001157 -.00005592  00000-0 -33366-3 0  9991,2 52284  53.2159  73.7623 0001629  58.7001 196.1672 15.08823478 22872,6917.931,95.439,540.923,538.669,0.0
52284.0,STARLINK-3561,PAYLOAD,2022-09-09 14:00:01,15.08840736,0.0001646,53.2152,72.2659,62.2888,204.1481,-0.0004602999999999,-7.606e-05,0.0,0 STARLINK-3561,1 52284U 22041Z   22252.58334491 -.00007606  00000-0 -46030-3 0  9997,2 52284  53.2152  72.2659 0001646  62.2888 204.1481 15.08840736  1309,6917.878000000002,95.438,540.882,538.604,0.0
52284.0,STARLINK-3561,PAYLOAD,2022-09-09 22:00:00,15.08814203,0.0001781,53.215,70.7709,54.9052,223.1294,0.0028651999999999,0.00045575,0.0,0 STARLINK-3561,1 52284U 22041Z   22252.91667824  .00045575  00000-0  28652-2 0  9997,2 52284  53.2150  70.7709 0001781  54.9052 223.1294 15.08814203  1300,6917.959,95.439,541.056,538.592,0.0
52284.0,STARLINK-3561,PAYLOAD,2022-09-10 06:00:02,15.08838573,0.0001621999999999,53.2152,69.2728,59.9989,229.6844,0.000317,4.760000000000001e-05,0.0,0 STARLINK-3561,1 52284U 22041Z   22253.25002315  .00004760  00000-0  31700-3 0  9993,2 52284  53.2152  69.2728 0001622  59.9989 229.6844 15.08838573 23025,6917.885,95.438,540.872,538.628,0.0
52284.0,STARLINK-3561,PAYLOAD,2022-09-10 14:00:01,15.08864025,0.0001624,53.2152,67.7765,62.8688,238.3443,-0.00074514,-0.00012135,0.0,0 STARLINK-3561,1 52284U 22041Z   22253.58334491 -.00012135  00000-0 -74514-3 0  9999,2 52284  53.2152  67.7765 0001624  62.8688 238.3443 15.08864025  1300,6917.807,95.436,540.795,538.549,0.0
52284.0,STARLINK-3561,PAYLOAD,2022-09-10 22:00:00,15.08842228,0.0001719,53.2147,66.2812,54.6988,258.13,0.00012102,1.639e-05,0.0,0 STARLINK-3561,1 52284U 22041Z   22253.91667824  .00001639  00000-0  12102-3 0  9995,2 52284  53.2147  66.2812 0001719  54.6988 258.1300 15.08842228  1301,6917.874,95.437,540.928,538.549,0.0
52284.0,STARLINK-3561,PAYLOAD,2022-09-11 14:00:01,15.08860203,0.0001579,53.2148,63.2869,60.4445,275.5773,-0.00097519,-0.00015783,0.0,0 STARLINK-3561,1 52284U 22041Z   22254.58334491 -.00015783  00000-0 -97519-3 0  9992,2 52284  53.2148  63.2869 0001579  60.4445 275.5773 15.08860203  1308,6917.819,95.436,540.776,538.591,0.0
52284.0,STARLINK-3561,PAYLOAD,2022-09-11 22:00:00,15.08841658,0.0001653,53.2147,61.7917,52.014,295.6199,0.00061006,9.435e-05,0.0,0 STARLINK-3561,1 52284U 22041Z   22254.91667824  .00009435  00000-0  61006-3 0  9995,2 52284  53.2147  61.7917 0001653  52.0140 295.6199 15.08841658  1304,6917.875,95.437,540.884,538.597,0.0
52284.0,STARLINK-3561,PAYLOAD,2022-09-12 14:00:01,15.08863226,0.0001571,53.215,58.7975,56.7977,314.0291,-0.0015064,-0.00024198,0.0,0 STARLINK-3561,1 52284U 22041Z   22255.58334491 -.00024198  00000-0 -15064-2 0  9997,2 52284  53.2150  58.7975 0001571  56.7977 314.0291 15.08863226  1300,6917.809,95.436,540.761,538.5880000000002,0.0
